sat04991
1 04991U 70025HM  20046.86856451 -.00000021  00000-0  37415-4 0  9990
2 04991  99.9840 156.4627 0020739  18.6693  99.5254 13.53341102461568
